*******************************************************************************
Ephemeris / WWW_USER Tue Mar 11 05:39:23 2025 Pasadena, USA      / Horizons    
*******************************************************************************
Target body name: (2018 RA1)                      {source: JPL#6}
Center body name: Earth (399)                     {source: DE441}
Center-site name: Gemini South Obs., Cerro Pachon
*******************************************************************************
Start time      : A.D. 2018-Aug-02 22:19:00.0000 UT      
Stop  time      : A.D. 2018-Aug-03 11:18:00.0000 UT      
Step-size       : 1 minutes
*******************************************************************************
Target pole/equ : undefined
Target radii    : undefined                                                    
Center geodetic : 289.2634, -30.2406227, 2.71233  {E-lon(deg),Lat(deg),Alt(km)}
Center cylindric: 289.2634,5517.21435,-3194.81213 {E-lon(deg),Dxy(km),Dz(km)}
Center pole/equ : ITRF93                          {East-longitude positive}
Center radii    : 6378.137, 6378.137, 6356.752 km {Equator_a, b, pole_c}       
Target primary  : Sun
Vis. interferer : MOON (R_eq= 1737.400) km        {source: DE441}
Rel. light bend : Sun                             {source: DE441}
Rel. lght bnd GM: 1.3271E+11 km^3/s^2                                          
Small-body perts: Yes                             {source: SB441-N16}
Atmos refraction: NO (AIRLESS)
RA format       : HMS
Time format     : CAL 
Calendar mode   : Mixed Julian/Gregorian
RTS-only print  : NO       
EOP file        : eop.250310.p250606                                           
EOP coverage    : DATA-BASED 1962-JAN-20 TO 2025-MAR-10. PREDICTS-> 2025-JUN-05
Units conversion: 1 au= 149597870.700 km, c= 299792.458 km/s, 1 day= 86400.0 s 
Table cut-offs 1: Elevation (-90.0deg=NO ),Airmass (>38.000=NO), Daylight (YES)
Table cut-offs 2: Solar elongation (  0.0,180.0=NO ),Local Hour Angle( 0.0=NO )
Table cut-offs 3: RA/DEC angular rate (     0.0=NO )                           
*******************************************************************************
Initial IAU76/J2000 heliocentric ecliptic osculating elements (au, days, deg.):
  EPOCH=  2458369.5 ! 2018-Sep-08.00 (TDB)         Residual RMS= .21275        
   EC= .3232115344739424   QR= .7703453101153647   TP= 2458436.6763547547      
   OM= 166.2054176892707   W=  269.7217787981747   IN= 8.763099478405824       
  Equivalent ICRF heliocentric cartesian coordinates (au, au/d):
   X= 9.899686155013647E-01  Y=-2.468208982240139E-01  Z=-1.030323866474361E-01
  VX=-9.411283005844916E-04 VY= 1.717513364149167E-02 VZ= 4.613440841260365E-03
Asteroid physical parameters (km, seconds, rotational period in hours):        
   GM= n.a.                RAD= n.a.               ROTPER= n.a.                
   H= 26.4                 G= .150                 B-V= n.a.                   
                           ALBEDO= n.a.            STYP= n.a.                  
*******************************************************************************
 Date__(UT)__HR:MN     R.A._________(ICRF)_________DEC
******************************************************
$$SOE
 2018-Aug-03 08:34  m  22 29 26.710184 +14 21 38.67086
 2018-Aug-03 08:35  m  22 29 26.717040 +14 21 39.04246
 2018-Aug-03 08:36  m  22 29 26.723917 +14 21 39.41392
 2018-Aug-03 08:37  m  22 29 26.730816 +14 21 39.78524
 2018-Aug-03 08:38  m  22 29 26.737735 +14 21 40.15643
 2018-Aug-03 08:39  m  22 29 26.744676 +14 21 40.52749
 2018-Aug-03 08:40  m  22 29 26.751638 +14 21 40.89840
 2018-Aug-03 08:41  m  22 29 26.758622 +14 21 41.26919
 2018-Aug-03 08:42  m  22 29 26.765628 +14 21 41.63984
 2018-Aug-03 08:43  m  22 29 26.772656 +14 21 42.01036
 2018-Aug-03 08:44  m  22 29 26.779706 +14 21 42.38074
 2018-Aug-03 08:45  m  22 29 26.786779 +14 21 42.75099
 2018-Aug-03 08:46  m  22 29 26.793873 +14 21 43.12111
 2018-Aug-03 08:47  m  22 29 26.800991 +14 21 43.49110
 2018-Aug-03 08:48  m  22 29 26.808131 +14 21 43.86095
 2018-Aug-03 08:49  m  22 29 26.815294 +14 21 44.23068
 2018-Aug-03 08:50  m  22 29 26.822480 +14 21 44.60027
 2018-Aug-03 08:51  m  22 29 26.829689 +14 21 44.96973
 2018-Aug-03 08:52  m  22 29 26.836921 +14 21 45.33906
 2018-Aug-03 08:53  m  22 29 26.844177 +14 21 45.70826
 2018-Aug-03 08:54  m  22 29 26.851457 +14 21 46.07733
 2018-Aug-03 08:55  m  22 29 26.858760 +14 21 46.44628
 2018-Aug-03 08:56  m  22 29 26.866087 +14 21 46.81509
 2018-Aug-03 08:57  m  22 29 26.873438 +14 21 47.18378
 2018-Aug-03 08:58  m  22 29 26.880814 +14 21 47.55233
 2018-Aug-03 08:59  m  22 29 26.888213 +14 21 47.92076
 2018-Aug-03 09:00  m  22 29 26.895637 +14 21 48.28906
 2018-Aug-03 09:01  m  22 29 26.903086 +14 21 48.65724
 2018-Aug-03 09:02  m  22 29 26.910560 +14 21 49.02529
 2018-Aug-03 09:03  m  22 29 26.918058 +14 21 49.39321
 2018-Aug-03 09:04  m  22 29 26.925582 +14 21 49.76101
 2018-Aug-03 09:05  m  22 29 26.933130 +14 21 50.12868
 2018-Aug-03 09:06  m  22 29 26.940704 +14 21 50.49623
 2018-Aug-03 09:07  m  22 29 26.948304 +14 21 50.86365
 2018-Aug-03 09:08  m  22 29 26.955929 +14 21 51.23095
 2018-Aug-03 09:09  m  22 29 26.963580 +14 21 51.59813
 2018-Aug-03 09:10  m  22 29 26.971256 +14 21 51.96518
 2018-Aug-03 09:11  m  22 29 26.978959 +14 21 52.33211
 2018-Aug-03 09:12  m  22 29 26.986688 +14 21 52.69892
 2018-Aug-03 09:13  m  22 29 26.994443 +14 21 53.06560
 2018-Aug-03 09:14  m  22 29 27.002224 +14 21 53.43216
 2018-Aug-03 09:15  m  22 29 27.010033 +14 21 53.79861
 2018-Aug-03 09:16  m  22 29 27.017867 +14 21 54.16493
 2018-Aug-03 09:17  m  22 29 27.025729 +14 21 54.53113
 2018-Aug-03 09:18  m  22 29 27.033618 +14 21 54.89721
 2018-Aug-03 09:19  m  22 29 27.041533 +14 21 55.26317
 2018-Aug-03 09:20  m  22 29 27.049476 +14 21 55.62902
 2018-Aug-03 09:21  m  22 29 27.057446 +14 21 55.99474
 2018-Aug-03 09:22  m  22 29 27.065444 +14 21 56.36035
 2018-Aug-03 09:23  m  22 29 27.073470 +14 21 56.72584
 2018-Aug-03 09:24  m  22 29 27.081523 +14 21 57.09121
 2018-Aug-03 09:25  m  22 29 27.089604 +14 21 57.45647
 2018-Aug-03 09:26  m  22 29 27.097713 +14 21 57.82161
 2018-Aug-03 09:27  m  22 29 27.105850 +14 21 58.18663
 2018-Aug-03 09:28  m  22 29 27.114015 +14 21 58.55154
 2018-Aug-03 09:29  m  22 29 27.122209 +14 21 58.91633
 2018-Aug-03 09:30  m  22 29 27.130432 +14 21 59.28101
 2018-Aug-03 09:31  m  22 29 27.138683 +14 21 59.64558
 2018-Aug-03 09:32  m  22 29 27.146963 +14 22 00.01003
 2018-Aug-03 09:33  m  22 29 27.155271 +14 22 00.37437
 2018-Aug-03 09:34  m  22 29 27.163609 +14 22 00.73859
 2018-Aug-03 09:35  m  22 29 27.171976 +14 22 01.10271
 2018-Aug-03 09:36  m  22 29 27.180372 +14 22 01.46671
 2018-Aug-03 09:37  m  22 29 27.188798 +14 22 01.83060
 2018-Aug-03 09:38  m  22 29 27.197253 +14 22 02.19438
 2018-Aug-03 09:39  m  22 29 27.205738 +14 22 02.55805
 2018-Aug-03 09:40  m  22 29 27.214252 +14 22 02.92161
 2018-Aug-03 09:41  m  22 29 27.222797 +14 22 03.28506
 2018-Aug-03 09:42  m  22 29 27.231371 +14 22 03.64840
 2018-Aug-03 09:43  m  22 29 27.239976 +14 22 04.01164
 2018-Aug-03 09:44  m  22 29 27.248611 +14 22 04.37476
 2018-Aug-03 09:45  m  22 29 27.257276 +14 22 04.73778
 2018-Aug-03 09:46  m  22 29 27.265972 +14 22 05.10069
 2018-Aug-03 09:47  m  22 29 27.274698 +14 22 05.46350
 2018-Aug-03 09:48  m  22 29 27.283455 +14 22 05.82620
 2018-Aug-03 09:49  m  22 29 27.292243 +14 22 06.18879
 2018-Aug-03 09:50  m  22 29 27.301062 +14 22 06.55128
 2018-Aug-03 09:51  m  22 29 27.309912 +14 22 06.91367
 2018-Aug-03 09:52  m  22 29 27.318793 +14 22 07.27595
 2018-Aug-03 09:53  m  22 29 27.327706 +14 22 07.63813
 2018-Aug-03 09:54  m  22 29 27.336649 +14 22 08.00020
 2018-Aug-03 09:55  m  22 29 27.345625 +14 22 08.36218
 2018-Aug-03 09:56  m  22 29 27.354632 +14 22 08.72405
 2018-Aug-03 09:57  m  22 29 27.363671 +14 22 09.08582
 2018-Aug-03 09:58  m  22 29 27.372741 +14 22 09.44749
 2018-Aug-03 09:59  m  22 29 27.381844 +14 22 09.80905
 2018-Aug-03 10:00  m  22 29 27.390979 +14 22 10.17052
 2018-Aug-03 10:01  m  22 29 27.400146 +14 22 10.53189
 2018-Aug-03 10:02  m  22 29 27.409345 +14 22 10.89316
 2018-Aug-03 10:03  m  22 29 27.418576 +14 22 11.25434
 2018-Aug-03 10:04  m  22 29 27.427841 +14 22 11.61541
 2018-Aug-03 10:05 Am  22 29 27.437137 +14 22 11.97639
 2018-Aug-03 10:06 Am  22 29 27.446467 +14 22 12.33727
 2018-Aug-03 10:07 Am  22 29 27.455829 +14 22 12.69805
 2018-Aug-03 10:08 Am  22 29 27.465225 +14 22 13.05874
 2018-Aug-03 10:09 Am  22 29 27.474653 +14 22 13.41934
 2018-Aug-03 10:10 Am  22 29 27.484114 +14 22 13.77984
 2018-Aug-03 10:11 Am  22 29 27.493609 +14 22 14.14024
 2018-Aug-03 10:12 Am  22 29 27.503137 +14 22 14.50055
 2018-Aug-03 10:13 Am  22 29 27.512699 +14 22 14.86077
 2018-Aug-03 10:14 Am  22 29 27.522294 +14 22 15.22090
 2018-Aug-03 10:15 Am  22 29 27.531923 +14 22 15.58094
 2018-Aug-03 10:16 Am  22 29 27.541585 +14 22 15.94088
 2018-Aug-03 10:17 Am  22 29 27.551282 +14 22 16.30073
 2018-Aug-03 10:18 Am  22 29 27.561012 +14 22 16.66049
 2018-Aug-03 10:19 Am  22 29 27.570776 +14 22 17.02017
 2018-Aug-03 10:20 Am  22 29 27.580575 +14 22 17.37975
 2018-Aug-03 10:21 Am  22 29 27.590408 +14 22 17.73925
 2018-Aug-03 10:22 Am  22 29 27.600275 +14 22 18.09865
 2018-Aug-03 10:23 Am  22 29 27.610176 +14 22 18.45797
 2018-Aug-03 10:24 Am  22 29 27.620113 +14 22 18.81721
 2018-Aug-03 10:25 Am  22 29 27.630083 +14 22 19.17635
 2018-Aug-03 10:26 Am  22 29 27.640089 +14 22 19.53541
 2018-Aug-03 10:27 Am  22 29 27.650129 +14 22 19.89439
 2018-Aug-03 10:28 Am  22 29 27.660204 +14 22 20.25328
 2018-Aug-03 10:29 Am  22 29 27.670314 +14 22 20.61209
 2018-Aug-03 10:30 Am  22 29 27.680460 +14 22 20.97081
 2018-Aug-03 10:31 Am  22 29 27.690640 +14 22 21.32945
 2018-Aug-03 10:32 Am  22 29 27.700856 +14 22 21.68801
 2018-Aug-03 10:33 Am  22 29 27.711107 +14 22 22.04648
 2018-Aug-03 10:34 Nm  22 29 27.721393 +14 22 22.40488
 2018-Aug-03 10:35 Nm  22 29 27.731715 +14 22 22.76319
 2018-Aug-03 10:36 Nm  22 29 27.742073 +14 22 23.12142
